TEVEL2-7                
1 63238U 25052AE  26068.66113295  .00019244  00000+0  69668-3 0  9998
2 63238  97.4054 324.3041 0008105 124.6830 235.5175 15.28414096 54803
STARLINK-34161          
1 64017U 25101Z   26068.14569337  .00029321  00000+0  10702-2 0  9995
2 64017  43.0052   0.8898 0001807 273.3372  86.7273 15.27599371 46978
